{
  "norad_id": 66599,
  "name": "STARLINK-35930",
  "history": [
    {
      "epoch": "2026-03-28T21:29:24.865152",
      "apogee_km": 484.03970116084747,
      "perigee_km": 481.9338850462682,
      "latitude_deg": 42.6322612658377,
      "longitude_deg": -154.13903872016817,
      "semi_major_axis_km": 6861.123793103558,
      "eccentricity": 0.00015346,
      "inclination_deg": 43.0008,
      "raan_deg": 307.6716,
      "arg_perigee_deg": 274.7432,
      "mean_anomaly_deg": 85.3244,
      "mean_motion_rev_day": 15.27600807
    }
  ]
}